{
    "links": {
        "self": "http://www.neowsapp.com/rest/v1/neo/3986728?api_key=iIulBulltgU6a56xZRHN4H3l9WmuAYTsLGpBGhQ2"
    },
    "id": "3986728",
    "neo_reference_id": "3986728",
    "name": "(2020 BL)",
    "designation": "2020 BL",
    "nasa_jpl_url": "http://ssd.jpl.nasa.gov/sbdb.cgi?sstr=3986728",
    "absolute_magnitude_h": 26.931,
    "estimated_diameter": {
        "kilometers": {
            "estimated_diameter_min": 0.0109233281,
            "estimated_diameter_max": 0.0244253041
        },
        "meters": {
            "estimated_diameter_min": 10.92332805,
            "estimated_diameter_max": 24.4253040604
        },
        "miles": {
            "estimated_diameter_min": 0.0067874393,
            "estimated_diameter_max": 0.0151771756
        },
        "feet": {
            "estimated_diameter_min": 35.8376915996,
            "estimated_diameter_max": 80.1355145735
        }
    },
    "is_potentially_hazardous_asteroid": false,
    "close_approach_data": [
        {
            "close_approach_date": "1962-03-20",
            "close_approach_date_full": "1962-Mar-20 08:29",
            "epoch_date_close_approach": -245691060000,
            "relative_velocity": {
                "kilometers_per_second": "21.6535902345",
                "kilometers_per_hour": "77952.9248440978",
                "miles_per_hour": "48436.9159954895"
            },
            "miss_distance": {
                "astronomical": "0.4992597032",
                "lunar": "194.2120245448",
                "kilometers": "74688188.175552184",
                "miles": "46409088.1142767792"
            },
            "orbiting_body": "Earth"
        },
        {
            "close_approach_date": "2020-01-17",
            "close_approach_date_full": "2020-Jan-17 11:45",
            "epoch_date_close_approach": 1579261500000,
            "relative_velocity": {
                "kilometers_per_second": "6.9912780728",
                "kilometers_per_hour": "25168.6010622108",
                "miles_per_hour": "15638.7899211276"
            },
            "miss_distance": {
                "astronomical": "0.0209651907",
                "lunar": "8.1554591823",
                "kilometers": "3136347.872863809",
                "miles": "1948836.1994622042"
            },
            "orbiting_body": "Earth"
        }
    ],
    "orbital_data": {
        "orbit_id": "2",
        "orbit_determination_date": "2020-02-03 05:38:46",
        "first_observation_date": "2020-01-18",
        "last_observation_date": "2020-02-02",
        "data_arc_in_days": 15,
        "observations_used": 23,
        "orbit_uncertainty": "7",
        "minimum_orbit_intersection": ".0208627",
        "jupiter_tisserand_invariant": "3.631",
        "epoch_osculation": "2459000.5",
        "eccentricity": ".5071039116033665",
        "semi_major_axis": "2.03393439410999",
        "inclination": "5.282723143255806",
        "ascending_node_longitude": "111.3521764008527",
        "orbital_period": "1059.507017162461",
        "perihelion_distance": "1.002518306912191",
        "perihelion_argument": "8.227363955287679",
        "aphelion_distance": "3.065350481307789",
        "perihelion_time": "2458868.587550769741",
        "mean_anomaly": "44.82129986271848",
        "mean_motion": ".3397806660725483",
        "equinox": "J2000",
        "orbit_class": {
            "orbit_class_type": "APO",
            "orbit_class_description": "Near-Earth asteroid orbits which cross the Earth’s orbit similar to that of 1862 Apollo",
            "orbit_class_range": "a (semi-major axis) > 1.0 AU; q (perihelion) < 1.017 AU"
        }
    },
    "is_sentry_object": false
}